JILIN-1 GAOFEN 3A       
1 44312U 19032C   26068.74542089  .00016264  00000+0  55381-3 0  9993
2 44312  44.9746 183.2861 0002618 111.2900 248.8263 15.30271310372592
STARLINK-30456          
1 57943U 23148J   26068.25869119 -.00000215  00000+0  48804-5 0  9996
2 57943  53.1621  26.4758 0001148 104.1180 255.9948 15.30190510138356
